{"type":"FeatureCollection","name":"poleline-rookie-ring","features":[{"type":"Feature","properties":{"id":"poleline-rookie-ring","Location":"PoleLine","Name":"Rookie Ring","opened":2026,"length":1636,"altitude":40},"geometry":{"type":"LineString","coordinates":[[-1.2,51.5],[-1.1999712,51.5],[-1.1999424,51.5],[-1.1999136,51.5],[-1.1998848,51.5],[-1.199856,51.5],[-1.1998272,51.5],[-1.1997984,51.5],[-1.1997696,51.5],[-1.1997408,51.5],[-1.199712,51.5],[-1.1996832,51.5],[-1.1996544,51.5],[-1.1996256,51.5],[-1.1995968,51.5],[-1.199568,51.5],[-1.1995392,51.5],[-1.1995104,51.5],[-1.1994816,51.5],[-1.1994528,51.5],[-1.199424,51.5],[-1.1993952,51.5],[-1.1993664,51.5],[-1.1993376,51.5],[-1.1993088,51.5],[-1.19928,51.5],[-1.1992512,51.5],[-1.1992224,51.5],[-1.1991936,51.5],[-1.1991648,51.5],[-1.199136,51.5],[-1.1991071,51.5],[-1.1990783,51.5],[-1.1990495,51.5],[-1.1990207,51.5],[-1.1989919,51.5],[-1.1989631,51.5],[-1.1989343,51.5],[-1.1989055,51.5],[-1.1988767,51.5],[-1.1988479,51.5],[-1.1988191,51.5],[-1.1987903,51.5],[-1.1987615,51.5],[-1.1987327,51.5],[-1.1987039,51.5],[-1.1986751,51.5],[-1.1986463,51.5],[-1.1986175,51.5],[-1.1985887,51.5],[-1.1985599,51.5],[-1.1985311,51.5],[-1.1985023,51.5],[-1.1984735,51.5],[-1.1984447,51.5],[-1.1984159,51.5],[-1.1983871,51.5],[-1.1983583,51.5],[-1.1983295,51.5],[-1.1983007,51.5],[-1.1982719,51.5],[-1.1982431,51.5],[-1.1982143,51.5],[-1.1981855,51.5],[-1.1981567,51.5],[-1.1981279,51.5],[-1.1980991,51.5],[-1.1980703,51.5],[-1.1980415,51.5],[-1.1980127,51.5],[-1.1979839,51.5],[-1.1979551,51.5],[-1.1979263,51.5],[-1.1978975,51.5],[-1.1978687,51.5],[-1.1978399,51.5],[-1.1978111,51.5],[-1.1977823,51.5],[-1.1977535,51.5],[-1.1977247,51.5],[-1.1976959,51.5],[-1.1976671,51.5],[-1.1976383,51.5],[-1.1976095,51.5],[-1.1975807,51.5],[-1.1975519,51.5],[-1.1975231,51.5],[-1.1974943,51.5],[-1.1974655,51.5],[-1.1974367,51.5],[-1.1974079,51.5],[-1.1973791,51.5],[-1.1973503,51.5],[-1.1973214,51.5],[-1.1972926,51.5],[-1.1972638,51.5],[-1.197235,51.5],[-1.1972062,51.5],[-1.1971774,51.5],[-1.1971486,51.5],[-1.1971198,51.5],[-1.197091,51.5],[-1.1970622,51.5],[-1.1970334,51.5],[-1.1970046,51.5],[-1.1969758,51.5],[-1.196947,51.5],[-1.1969182,51.5],[-1.1968894,51.5],[-1.1968606,51.5],[-1.1968318,51.5],[-1.1968032,51.4999995],[-1.1967746,51.4999981],[-1.1967462,51.4999958],[-1.196718,51.4999925],[-1.1966902,51.4999884],[-1.1966627,51.4999833],[-1.1966357,51.4999773],[-1.1966092,51.4999705],[-1.1965834,51.4999628],[-1.1965582,51.4999542],[-1.1965338,51.4999449],[-1.1965102,51.4999348],[-1.1964874,51.4999239],[-1.1964657,51.4999123],[-1.1964449,51.4999],[-1.1964251,51.499887],[-1.1964065,51.4998734],[-1.1963891,51.4998592],[-1.1963729,51.4998445],[-1.1963579,51.4998292],[-1.1963442,51.4998135],[-1.1963319,51.4997974],[-1.1963209,51.4997809],[-1.1963114,51.499764],[-1.1963032,51.4997469],[-1.1962965,51.4997295],[-1.1962913,51.4997119],[-1.1962876,51.4996942],[-1.1962853,51.4996763],[-1.1962846,51.4996585],[-1.1962846,51.4996405],[-1.1962846,51.4996225],[-1.1962846,51.4996045],[-1.1962846,51.4995865],[-1.1962846,51.4995686],[-1.1962846,51.4995506],[-1.1962846,51.4995326],[-1.1962846,51.4995146],[-1.1962846,51.4994967],[-1.1962846,51.4994787],[-1.1962846,51.4994607],[-1.1962846,51.4994427],[-1.1962846,51.4994248],[-1.1962846,51.4994068],[-1.1962846,51.4993888],[-1.1962846,51.4993708],[-1.1962846,51.4993529],[-1.1962846,51.4993349],[-1.1962846,51.4993169],[-1.1962846,51.4992989],[-1.1962846,51.4992809],[-1.1962846,51.499263],[-1.1962846,51.499245],[-1.1962846,51.499227],[-1.1962846,51.499209],[-1.1962846,51.4991911],[-1.1962846,51.4991731],[-1.1962846,51.4991551],[-1.1962846,51.4991371],[-1.1962846,51.4991192],[-1.1962846,51.4991012],[-1.1962846,51.4990832],[-1.1962846,51.4990652],[-1.1962846,51.4990473],[-1.1962846,51.4990293],[-1.1962846,51.4990113],[-1.1962846,51.4989933],[-1.1962846,51.4989754],[-1.1962846,51.4989574],[-1.1962846,51.4989394],[-1.1962846,51.4989214],[-1.1962846,51.4989034],[-1.1962846,51.4988855],[-1.1962846,51.4988675],[-1.1962846,51.4988495],[-1.1962846,51.4988315],[-1.1962846,51.4988136],[-1.1962846,51.4987956],[-1.1962846,51.4987776],[-1.1962846,51.4987596],[-1.1962846,51.4987417],[-1.1962846,51.4987237],[-1.1962846,51.4987057],[-1.1962846,51.4986877],[-1.1962846,51.4986698],[-1.1962846,51.4986518],[-1.1962846,51.4986338],[-1.1962846,51.4986158],[-1.1962846,51.4985979],[-1.1962846,51.4985799],[-1.1962846,51.4985619],[-1.1962846,51.4985439],[-1.1962846,51.4985259],[-1.1962846,51.498508],[-1.1962846,51.49849],[-1.1962846,51.498472],[-1.1962846,51.498454],[-1.1962846,51.4984361],[-1.1962846,51.4984181],[-1.1962846,51.4984001],[-1.196285,51.498382],[-1.1962861,51.4983639],[-1.1962881,51.4983459],[-1.1962908,51.4983278],[-1.1962943,51.4983099],[-1.1962986,51.498292],[-1.1963036,51.4982742],[-1.1963094,51.4982564],[-1.196316,51.4982388],[-1.1963233,51.4982213],[-1.1963314,51.4982039],[-1.1963402,51.4981866],[-1.1963497,51.4981696],[-1.19636,51.4981526],[-1.196371,51.4981359],[-1.1963827,51.4981193],[-1.1963952,51.498103],[-1.1964083,51.4980868],[-1.1964221,51.4980709],[-1.1964366,51.4980552],[-1.1964518,51.4980398],[-1.1964676,51.4980247],[-1.1964841,51.4980098],[-1.1965012,51.4979951],[-1.1965189,51.4979808],[-1.1965373,51.4979668],[-1.1965562,51.4979531],[-1.1965757,51.4979397],[-1.1965958,51.4979267],[-1.1966165,51.4979139],[-1.1966376,51.4979016],[-1.1966594,51.4978896],[-1.1966816,51.4978779],[-1.1967043,51.4978667],[-1.1967275,51.4978558],[-1.1967511,51.4978453],[-1.1967752,51.4978352],[-1.1967997,51.4978256],[-1.1968246,51.4978163],[-1.1968495,51.4978071],[-1.196874,51.4977974],[-1.1968981,51.4977873],[-1.1969218,51.4977768],[-1.196945,51.4977659],[-1.1969677,51.4977547],[-1.1969899,51.4977431],[-1.1970116,51.4977311],[-1.1970328,51.4977187],[-1.1970534,51.497706],[-1.1970735,51.4976929],[-1.197093,51.4976795],[-1.197112,51.4976658],[-1.1971303,51.4976518],[-1.197148,51.4976375],[-1.1971651,51.4976229],[-1.1971816,51.497608],[-1.1971974,51.4975928],[-1.1972126,51.4975774],[-1.1972271,51.4975617],[-1.1972409,51.4975458],[-1.1972541,51.4975297],[-1.1972665,51.4975133],[-1.1972782,51.4974967],[-1.1972892,51.49748],[-1.1972995,51.4974631],[-1.1973091,51.497446],[-1.1973179,51.4974287],[-1.1973259,51.4974114],[-1.1973333,51.4973938],[-1.1973398,51.4973762],[-1.1973456,51.4973585],[-1.1973507,51.4973407],[-1.1973549,51.4973228],[-1.1973584,51.4973048],[-1.1973611,51.4972868],[-1.1973631,51.4972687],[-1.1973643,51.4972506],[-1.1973647,51.4972325],[-1.1973647,51.4972147],[-1.1973647,51.4971969],[-1.1973647,51.4971791],[-1.1973647,51.4971613],[-1.1973647,51.4971435],[-1.1973647,51.4971257],[-1.1973647,51.4971079],[-1.1973647,51.4970901],[-1.1973647,51.4970723],[-1.1973647,51.4970545],[-1.1973647,51.4970367],[-1.1973647,51.4970189],[-1.1973647,51.4970011],[-1.1973647,51.4969833],[-1.1973647,51.4969655],[-1.1973647,51.4969477],[-1.1973647,51.4969299],[-1.1973647,51.4969121],[-1.1973647,51.4968943],[-1.1973647,51.4968765],[-1.1973647,51.4968587],[-1.1973647,51.4968409],[-1.1973647,51.4968231],[-1.1973647,51.4968053],[-1.1973647,51.4967875],[-1.1973647,51.4967697],[-1.1973647,51.4967519],[-1.1973647,51.4967341],[-1.1973647,51.4967163],[-1.1973647,51.4966985],[-1.1973647,51.4966807],[-1.1973647,51.4966629],[-1.1973647,51.4966451],[-1.1973647,51.4966273],[-1.1973647,51.4966095],[-1.1973647,51.4965917],[-1.1973647,51.4965739],[-1.1973647,51.4965561],[-1.1973647,51.4965383],[-1.1973647,51.4965205],[-1.1973647,51.4965027],[-1.1973647,51.4964849],[-1.1973647,51.4964671],[-1.1973647,51.4964493],[-1.1973647,51.4964315],[-1.1973647,51.4964137],[-1.1973661,51.4963959],[-1.1973706,51.4963782],[-1.197378,51.496361],[-1.1973883,51.4963443],[-1.1974013,51.4963283],[-1.1974169,51.4963134],[-1.1974349,51.4962995],[-1.1974552,51.4962868],[-1.1974774,51.4962756],[-1.1975015,51.4962658],[-1.197527,51.4962577],[-1.1975537,51.4962513],[-1.1975814,51.4962467],[-1.1976097,51.4962439],[-1.1976383,51.496243],[-1.1976669,51.4962439],[-1.1976952,51.4962467],[-1.1977228,51.4962513],[-1.1977496,51.4962577],[-1.1977751,51.4962658],[-1.1977991,51.4962756],[-1.1978214,51.4962868],[-1.1978416,51.4962995],[-1.1978596,51.4963134],[-1.1978752,51.4963283],[-1.1978882,51.4963443],[-1.1978985,51.496361],[-1.1979059,51.4963782],[-1.1979104,51.4963959],[-1.1979119,51.4964137],[-1.1979119,51.4964317],[-1.1979119,51.4964497],[-1.1979119,51.4964677],[-1.1979119,51.4964856],[-1.1979119,51.4965036],[-1.1979119,51.4965216],[-1.1979119,51.4965396],[-1.1979119,51.4965575],[-1.1979119,51.4965755],[-1.1979119,51.4965935],[-1.1979119,51.4966115],[-1.1979119,51.4966294],[-1.1979119,51.4966474],[-1.1979119,51.4966654],[-1.1979119,51.4966834],[-1.1979119,51.4967014],[-1.1979119,51.4967193],[-1.1979119,51.4967373],[-1.1979119,51.4967553],[-1.1979119,51.4967733],[-1.1979119,51.4967912],[-1.1979119,51.4968092],[-1.1979119,51.4968272],[-1.1979119,51.4968452],[-1.1979119,51.4968631],[-1.1979119,51.4968811],[-1.1979119,51.4968991],[-1.1979119,51.4969171],[-1.1979119,51.496935],[-1.1979119,51.496953],[-1.1979119,51.496971],[-1.1979119,51.496989],[-1.1979119,51.497007],[-1.1979119,51.4970249],[-1.1979119,51.4970429],[-1.1979119,51.4970609],[-1.1979119,51.4970789],[-1.1979119,51.4970968],[-1.1979119,51.4971148],[-1.1979119,51.4971328],[-1.1979119,51.4971508],[-1.1979119,51.4971687],[-1.1979119,51.4971867],[-1.1979119,51.4972047],[-1.1979119,51.4972227],[-1.1979119,51.4972406],[-1.1979119,51.4972586],[-1.1979119,51.4972766],[-1.1979119,51.4972946],[-1.1979119,51.4973125],[-1.1979119,51.4973305],[-1.1979119,51.4973485],[-1.1979119,51.4973665],[-1.1979119,51.4973845],[-1.1979119,51.4974024],[-1.1979119,51.4974204],[-1.1979119,51.4974384],[-1.1979119,51.4974564],[-1.1979119,51.4974743],[-1.1979119,51.4974923],[-1.1979119,51.4975103],[-1.1979119,51.4975283],[-1.1979119,51.4975462],[-1.1979119,51.4975642],[-1.1979119,51.4975822],[-1.1979119,51.4976002],[-1.1979119,51.4976181],[-1.1979119,51.4976361],[-1.1979119,51.4976541],[-1.1979119,51.4976721],[-1.1979119,51.49769],[-1.1979119,51.497708],[-1.1979119,51.497726],[-1.1979119,51.497744],[-1.1979119,51.497762],[-1.1979119,51.4977799],[-1.1979119,51.4977979],[-1.1979119,51.4978159],[-1.1979119,51.4978339],[-1.1979119,51.4978518],[-1.1979119,51.4978698],[-1.1979119,51.4978878],[-1.1979119,51.4979058],[-1.1979119,51.4979237],[-1.1979119,51.4979417],[-1.1979119,51.4979597],[-1.1979119,51.4979777],[-1.1979119,51.4979956],[-1.1979119,51.4980136],[-1.1979119,51.4980316],[-1.1979119,51.4980496],[-1.1979119,51.4980676],[-1.1979119,51.4980855],[-1.1979119,51.4981035],[-1.1979119,51.4981215],[-1.1979119,51.4981395],[-1.1979119,51.4981574],[-1.1979119,51.4981754],[-1.1979119,51.4981934],[-1.1979119,51.4982114],[-1.1979119,51.4982293],[-1.1979119,51.4982473],[-1.1979119,51.4982653],[-1.1979119,51.4982833],[-1.1979119,51.4983012],[-1.1979119,51.4983192],[-1.1979119,51.4983372],[-1.1979119,51.4983552],[-1.1979119,51.4983731],[-1.1979119,51.4983911],[-1.1979119,51.4984091],[-1.1979119,51.4984271],[-1.1979119,51.4984451],[-1.1979119,51.498463],[-1.1979119,51.498481],[-1.1979119,51.498499],[-1.1979119,51.498517],[-1.1979119,51.4985349],[-1.1979119,51.4985529],[-1.1979119,51.4985709],[-1.1979119,51.4985889],[-1.1979119,51.4986068],[-1.1979119,51.4986248],[-1.1979119,51.4986428],[-1.1979119,51.4986608],[-1.1979119,51.4986787],[-1.1979119,51.4986967],[-1.1979119,51.4987147],[-1.1979119,51.4987327],[-1.1979119,51.4987506],[-1.1979124,51.4987687],[-1.197914,51.4987867],[-1.1979166,51.4988047],[-1.1979203,51.4988226],[-1.1979251,51.4988404],[-1.1979308,51.4988581],[-1.1979376,51.4988757],[-1.1979455,51.4988931],[-1.1979543,51.4989103],[-1.1979641,51.4989272],[-1.197975,51.498944],[-1.1979868,51.4989605],[-1.1979995,51.4989767],[-1.1980132,51.4989926],[-1.1980278,51.4990082],[-1.1980434,51.4990234],[-1.1980598,51.4990383],[-1.198077,51.4990528],[-1.1980951,51.4990669],[-1.198114,51.4990805],[-1.1981337,51.4990938],[-1.1981542,51.4991065],[-1.1981754,51.4991188],[-1.1981973,51.4991306],[-1.1982198,51.4991419],[-1.1982431,51.4991527],[-1.1982669,51.4991629],[-1.1982913,51.4991726],[-1.1983163,51.4991817],[-1.1983418,51.4991903],[-1.1983677,51.4991983],[-1.1983942,51.4992056],[-1.198421,51.4992124],[-1.1984482,51.4992185],[-1.1984757,51.499224],[-1.1985036,51.4992289],[-1.1985317,51.4992332],[-1.1985601,51.4992368],[-1.1985886,51.4992397],[-1.1986173,51.499242],[-1.1986461,51.4992437],[-1.198675,51.4992447],[-1.1987039,51.499245],[-1.1987327,51.499245],[-1.1987615,51.499245],[-1.1987903,51.499245],[-1.1988191,51.499245],[-1.1988479,51.499245],[-1.1988767,51.499245],[-1.1989055,51.499245],[-1.1989343,51.499245],[-1.1989631,51.499245],[-1.1989919,51.499245],[-1.1990207,51.499245],[-1.1990495,51.499245],[-1.1990783,51.499245],[-1.1991071,51.499245],[-1.199136,51.499245],[-1.1991648,51.499245],[-1.1991936,51.499245],[-1.1992224,51.499245],[-1.1992512,51.499245],[-1.19928,51.499245],[-1.1993088,51.499245],[-1.1993376,51.499245],[-1.1993664,51.499245],[-1.1993952,51.499245],[-1.199424,51.499245],[-1.1994528,51.499245],[-1.1994816,51.499245],[-1.1995104,51.499245],[-1.1995392,51.499245],[-1.199568,51.499245],[-1.1995968,51.499245],[-1.1996256,51.499245],[-1.1996544,51.499245],[-1.1996832,51.499245],[-1.199712,51.499245],[-1.1997408,51.499245],[-1.1997696,51.499245],[-1.1997984,51.499245],[-1.1998272,51.499245],[-1.199856,51.499245],[-1.1998848,51.499245],[-1.1999136,51.499245],[-1.1999424,51.499245],[-1.1999712,51.499245],[-1.2,51.499245],[-1.2000288,51.499245],[-1.2000576,51.499245],[-1.2000864,51.499245],[-1.2001152,51.499245],[-1.200144,51.499245],[-1.2001728,51.499245],[-1.2002016,51.499245],[-1.2002304,51.499245],[-1.2002592,51.499245],[-1.200288,51.499245],[-1.2003168,51.499245],[-1.2003456,51.499245],[-1.2003744,51.499245],[-1.2004032,51.499245],[-1.200432,51.499245],[-1.2004608,51.499245],[-1.2004896,51.499245],[-1.2005184,51.499245],[-1.2005472,51.499245],[-1.200576,51.499245],[-1.2006048,51.499245],[-1.2006336,51.499245],[-1.2006624,51.499245],[-1.2006912,51.499245],[-1.20072,51.499245],[-1.2007488,51.499245],[-1.2007776,51.499245],[-1.2008064,51.499245],[-1.2008352,51.499245],[-1.200864,51.499245],[-1.2008929,51.499245],[-1.2009217,51.499245],[-1.2009505,51.499245],[-1.2009793,51.499245],[-1.2010081,51.499245],[-1.2010369,51.499245],[-1.2010657,51.499245],[-1.2010945,51.499245],[-1.2011233,51.499245],[-1.2011521,51.499245],[-1.2011809,51.499245],[-1.2012097,51.499245],[-1.2012385,51.499245],[-1.2012673,51.499245],[-1.2012961,51.499245],[-1.2013249,51.499245],[-1.2013537,51.499245],[-1.2013825,51.499245],[-1.2014113,51.499245],[-1.2014401,51.499245],[-1.2014689,51.499245],[-1.2014977,51.499245],[-1.2015265,51.499245],[-1.2015553,51.499245],[-1.2015841,51.499245],[-1.2016129,51.499245],[-1.2016417,51.499245],[-1.2016705,51.499245],[-1.2016993,51.499245],[-1.2017281,51.499245],[-1.2017569,51.499245],[-1.2017857,51.499245],[-1.2018145,51.499245],[-1.2018433,51.499245],[-1.2018721,51.499245],[-1.2019009,51.499245],[-1.2019297,51.499245],[-1.2019585,51.499245],[-1.2019873,51.499245],[-1.2020161,51.499245],[-1.2020449,51.499245],[-1.2020737,51.499245],[-1.2021025,51.499245],[-1.2021313,51.499245],[-1.2021601,51.499245],[-1.2021889,51.499245],[-1.2022177,51.499245],[-1.2022465,51.499245],[-1.2022753,51.499245],[-1.2023041,51.499245],[-1.2023329,51.499245],[-1.2023617,51.499245],[-1.2023905,51.499245],[-1.2024193,51.499245],[-1.2024481,51.499245],[-1.2024769,51.4992454],[-1.2025056,51.4992467],[-1.2025342,51.4992488],[-1.2025626,51.4992518],[-1.2025907,51.4992556],[-1.2026185,51.4992603],[-1.202646,51.4992658],[-1.2026729,51.499272],[-1.2026994,51.4992791],[-1.2027253,51.499287],[-1.2027506,51.4992956],[-1.2027751,51.4993049],[-1.202799,51.499315],[-1.202822,51.4993258],[-1.2028442,51.4993372],[-1.2028655,51.4993493],[-1.2028859,51.499362],[-1.2029052,51.4993753],[-1.2029236,51.4993891],[-1.2029408,51.4994035],[-1.202957,51.4994184],[-1.2029719,51.4994337],[-1.2029857,51.4994495],[-1.2029983,51.4994657],[-1.2030096,51.4994822],[-1.2030197,51.499499],[-1.2030285,51.4995161],[-1.2030359,51.4995335],[-1.203042,51.4995511],[-1.2030468,51.4995688],[-1.2030502,51.4995866],[-1.2030523,51.4996045],[-1.203053,51.4996225],[-1.2030523,51.4996405],[-1.2030502,51.4996584],[-1.2030468,51.4996762],[-1.203042,51.4996939],[-1.2030359,51.4997115],[-1.2030285,51.4997289],[-1.2030197,51.499746],[-1.2030096,51.4997628],[-1.2029983,51.4997793],[-1.2029857,51.4997955],[-1.2029719,51.4998112],[-1.202957,51.4998266],[-1.2029408,51.4998415],[-1.2029236,51.4998559],[-1.2029052,51.4998697],[-1.2028859,51.499883],[-1.2028655,51.4998957],[-1.2028442,51.4999078],[-1.202822,51.4999192],[-1.202799,51.49993],[-1.2027751,51.4999401],[-1.2027506,51.4999494],[-1.2027253,51.499958],[-1.2026994,51.4999659],[-1.2026729,51.499973],[-1.202646,51.4999792],[-1.2026185,51.4999847],[-1.2025907,51.4999894],[-1.2025626,51.4999932],[-1.2025342,51.4999962],[-1.2025056,51.4999983],[-1.2024769,51.4999996],[-1.2024481,51.5],[-1.2024193,51.5],[-1.2023905,51.5],[-1.2023617,51.5],[-1.2023329,51.5],[-1.2023041,51.5],[-1.2022753,51.5],[-1.2022465,51.5],[-1.2022177,51.5],[-1.2021889,51.5],[-1.2021601,51.5],[-1.2021313,51.5],[-1.2021025,51.5],[-1.2020737,51.5],[-1.2020449,51.5],[-1.2020161,51.5],[-1.2019873,51.5],[-1.2019585,51.5],[-1.2019297,51.5],[-1.2019009,51.5],[-1.2018721,51.5],[-1.2018433,51.5],[-1.2018145,51.5],[-1.2017857,51.5],[-1.2017569,51.5],[-1.2017281,51.5],[-1.2016993,51.5],[-1.2016705,51.5],[-1.2016417,51.5],[-1.2016129,51.5],[-1.2015841,51.5],[-1.2015553,51.5],[-1.2015265,51.5],[-1.2014977,51.5],[-1.2014689,51.5],[-1.2014401,51.5],[-1.2014113,51.5],[-1.2013825,51.5],[-1.2013537,51.5],[-1.2013249,51.5],[-1.2012961,51.5],[-1.2012673,51.5],[-1.2012385,51.5],[-1.2012097,51.5],[-1.2011809,51.5],[-1.2011521,51.5],[-1.2011233,51.5],[-1.2010945,51.5],[-1.2010657,51.5],[-1.2010369,51.5],[-1.2010081,51.5],[-1.2009793,51.5],[-1.2009505,51.5],[-1.2009217,51.5],[-1.2008929,51.5],[-1.200864,51.5],[-1.2008352,51.5],[-1.2008064,51.5],[-1.2007776,51.5],[-1.2007488,51.5],[-1.20072,51.5],[-1.2006912,51.5],[-1.2006624,51.5],[-1.2006336,51.5],[-1.2006048,51.5],[-1.200576,51.5],[-1.2005472,51.5],[-1.2005184,51.5],[-1.2004896,51.5],[-1.2004608,51.5],[-1.200432,51.5],[-1.2004032,51.5],[-1.2003744,51.5],[-1.2003456,51.5],[-1.2003168,51.5],[-1.200288,51.5],[-1.2002592,51.5],[-1.2002304,51.5],[-1.2002016,51.5],[-1.2001728,51.5],[-1.200144,51.5],[-1.2001152,51.5],[-1.2000864,51.5],[-1.2000576,51.5],[-1.2000288,51.5],[-1.2,51.5]]}}]}
